NORAD_CAT_ID,OBJECT_NAME,OBJECT_TYPE,EPOCH,MEAN_MOTION,ECCENTRICITY,INCLINATION,RA_OF_ASC_NODE,ARG_OF_PERICENTER,MEAN_ANOMALY,BSTAR,MEAN_MOTION_DOT,MEAN_MOTION_DDOT,TLE_LINE0,TLE_LINE1,TLE_LINE2,SEMIMAJOR_AXIS,PERIOD,APOGEE,PERIGEE,DECAYED
52298.0,STARLINK-3760,PAYLOAD,2023-08-18 00:26:43,15.0883472,0.0001286,53.2176,335.0326,95.1164,264.9975,7.4712e-05,9.01e-06,0.0,0 STARLINK-3760,1 52298U 22041AP  23230.01855399  .00000901  00000-0  74712-4 0  9990,2 52298  53.2176 335.0326 0001286  95.1164 264.9975 15.08834720 74615,6917.897,95.438,540.651,538.872,0.0
52298.0,STARLINK-3760,PAYLOAD,2023-08-19 06:39:02,15.08838516,9.41e-05,53.2164,329.386,95.33,264.78,9.4355e-05,1.214e-05,0.0,0 STARLINK-3760,1 52298U 22041AP  23231.27711584  .00001214  00000-0  94355-4 0  9999,2 52298  53.2164 329.3860 0000941  95.3300 264.7800 15.08838516 74805,6917.885,95.438,540.401,539.099,0.0
52298.0,STARLINK-3760,PAYLOAD,2023-08-20 12:51:22,15.08840438,0.0001138,53.2165,323.7365,85.3828,274.7294,0.0001597,2.255e-05,0.0,0 STARLINK-3760,1 52298U 22041AP  23232.53567708  .00002255  00000-0  15970-3 0  9997,2 52298  53.2165 323.7365 0001138  85.3828 274.7294 15.08840438 74991,6917.879,95.438,540.531,538.957,0.0
52298.0,STARLINK-3760,PAYLOAD,2023-08-21 11:06:46,15.08830631,0.0001125,53.2172,319.5732,79.3116,280.8003,0.0001733,2.471e-05,0.0,0 STARLINK-3760,1 52298U 22041AP  23233.46304235  .00002471  00000-0  17330-3 0  9996,2 52298  53.2172 319.5732 0001125  79.3116 280.8003 15.08830631 75136,6917.909,95.438,540.552,538.996,0.0
52298.0,STARLINK-3760,PAYLOAD,2023-08-21 12:42:09,15.08841668,0.0001011,53.2175,319.2749,84.4752,275.6355,5.1772e-05,5.36e-06,0.0,0 STARLINK-3760,1 52298U 22041AP  23233.52927666  .00000536  00000-0  51772-4 0  9991,2 52298  53.2175 319.2749 0001011  84.4752 275.6355 15.08841668 75146,6917.875,95.437,540.44,539.041,0.0
52298.0,STARLINK-3760,PAYLOAD,2023-08-23 12:23:43,15.08841348,0.0001353,53.218,310.3577,97.0829,263.0317,6.067e-05,6.78e-06,0.0,0 STARLINK-3760,1 52298U 22041AP  23235.51647946  .00000678  00000-0  60670-4 0  9996,2 52298  53.2180 310.3577 0001353  97.0829 263.0317 15.08841348 75444,6917.876,95.437,540.677,538.805,0.0
52298.0,STARLINK-3760,PAYLOAD,2023-08-24 10:39:08,15.08837156,0.0001175,53.2165,306.1913,91.8914,268.2212,2.4745e-05,1.06e-06,0.0,0 STARLINK-3760,1 52298U 22041AP  23236.44384342  .00000106  00000-0  24745-4 0  9996,2 52298  53.2165 306.1913 0001175  91.8914 268.2212 15.08837156 74377,6917.889,95.438,540.567,538.941,0.0
52298.0,STARLINK-3760,PAYLOAD,2023-08-25 12:05:18,15.08841577,0.0001215,53.2164,301.4338,85.0678,275.0453,5.4781e-05,5.84e-06,0.0,0 STARLINK-3760,1 52298U 22041AP  23237.50368199  .00000584  00000-0  54781-4 0  9999,2 52298  53.2164 301.4338 0001215  85.0678 275.0453 15.08841577 74535,6917.876,95.437,540.581,538.9,0.0
52298.0,STARLINK-3760,PAYLOAD,2023-08-26 10:20:08,15.092304,0.0001398,53.2163,297.2679,59.7867,300.3264,0.0031667,0.00051019,0.0,0 STARLINK-3760,1 52298U 22041AP  23238.43064879  .00051019  00000-0  31667-2 0  9995,2 52298  53.2163 297.2679 0001398  59.7867 300.3264 15.09230400 75883,6916.687,95.413,539.519,537.585,0.0
52298.0,STARLINK-3760,PAYLOAD,2023-08-26 13:30:48,15.0927345,0.0001997,53.2177,296.6744,45.5911,314.5245,0.0034333,0.0005544,0.0,0 STARLINK-3760,1 52298U 22041AP  23238.56306710  .00055440  00000-0  34333-2 0  9997,2 52298  53.2177 296.6744 0001997  45.5911 314.5245 15.09273450 74698,6916.556,95.41,539.802,537.04,0.0
52298.0,STARLINK-3760,PAYLOAD,2023-08-26 18:16:44,15.09395945,0.0001386,53.2174,295.7812,95.1056,265.0094,0.0042698,0.00069387,0.0,0 STARLINK-3760,1 52298U 22041AP  23238.76163042  .00069387  00000-0  42698-2 0  9996,2 52298  53.2174 295.7812 0001386  95.1056 265.0094 15.09395945 75938,6916.182,95.402,539.005,537.088,0.0
52298.0,STARLINK-3760,PAYLOAD,2023-08-26 19:52:01,15.09463218,0.0001864,53.2172,295.4832,57.9356,302.1817,0.0047735,0.00077843,0.0,0 STARLINK-3760,1 52298U 22041AP  23238.82779692  .00077843  00000-0  47735-2 0  9990,2 52298  53.2172 295.4832 0001864  57.9356 302.1817 15.09463218 74737,6915.976,95.398,539.13,536.552,0.0
52298.0,STARLINK-3760,PAYLOAD,2023-08-27 03:48:36,15.09598789,0.0001249,53.2173,293.9935,44.1817,315.9275,0.0053932,0.00088447,0.0,0 STARLINK-3760,1 52298U 22041AP  23239.15875853  .00088447  00000-0  53932-2 0  9991,2 52298  53.2173 293.9935 0001249  44.1817 315.9275 15.09598789 75993,6915.562,95.39,538.291,536.563,0.0
52298.0,STARLINK-3760,PAYLOAD,2023-08-28 14:00:01,15.10443062,0.0001403,53.2159,287.5853,82.3768,107.1049,0.0032366,0.00053949,0.0,0 STARLINK-3760,1 52298U 22041AP  23240.58334491  .00053949  00000-0  32366-2 0  9995,2 52298  53.2159 287.5853 0001403  82.3768 107.1049 15.10443062 76217,6912.985,95.336,535.82,533.88,0.0
52298.0,STARLINK-3760,PAYLOAD,2023-08-28 22:00:00,15.10466667,0.0001349,53.2159,286.0835,91.7215,111.3167,0.001777,0.00029405,0.0,0 STARLINK-3760,1 52298U 22041AP  23240.91667824  .00029405  00000-0  17770-2 0  9993,2 52298  53.2159 286.0835 0001349  91.7215 111.3167 15.10466667  5598,6912.913,95.335,535.71,533.845,0.0
52298.0,STARLINK-3760,PAYLOAD,2023-08-29 06:00:00,15.1050848,0.0001416,53.216,284.5839,90.2727,126.3167,-0.0022932,-0.000383,0.0,0 STARLINK-3760,1 52298U 22041AP  23241.25001157 -.00038300  00000-0 -22932-2 0  9994,2 52298  53.2160 284.5839 0001416  90.2727 126.3167 15.10508480 76318,6912.785,95.332,535.629,533.671,0.0
52298.0,STARLINK-3760,PAYLOAD,2023-08-29 22:00:00,15.1044737,0.0001343,53.2156,281.5829,85.1713,158.5594,0.0020283,0.00033607,0.0,0 STARLINK-3760,1 52298U 22041AP  23241.91667824  .00033607  00000-0  20283-2 0  9996,2 52298  53.2156 281.5829 0001343  85.1713 158.5594 15.10447370  5746,6912.972,95.336,535.765,533.908,0.0
52298.0,STARLINK-3760,PAYLOAD,2023-08-30 06:00:00,15.10489275,0.0001395,53.2155,280.0834,85.048,172.2188,-0.0015985,-0.00026814,0.0,0 STARLINK-3760,1 52298U 22041AP  23242.25001157 -.00026814  00000-0 -15985-2 0  9992,2 52298  53.2155 280.0834 0001395  85.0480 172.2188 15.10489275 76461,6912.844,95.333,535.673,533.744,0.0
52298.0,STARLINK-3760,PAYLOAD,2023-08-30 22:00:00,15.10460232,0.0001327,53.2149,277.0822,87.4782,196.92,0.0024946,0.00041461,0.0,0 STARLINK-3760,1 52298U 22041AP  23242.91667824  .00041461  00000-0  24946-2 0  9994,2 52298  53.2149 277.0822 0001327  87.4782 196.9200 15.10460232 76564,6912.932,95.335,535.715,533.88,0.0
52298.0,STARLINK-3760,PAYLOAD,2023-08-31 00:00:02,15.10456481,0.0001337,53.2147,276.7068,89.9527,287.8983,0.0032631,0.00054417,0.0,0 STARLINK-3760,1 52298U 22041AP  23243.00002315  .00054417  00000-0  32631-2 0  9998,2 52298  53.2147 276.7068 0001337  89.9527 287.8983 15.10456481  5779,6912.944,95.335,535.733,533.885,0.0
52298.0,STARLINK-3760,PAYLOAD,2023-08-31 14:00:01,15.10456171,0.0001355,53.2142,274.0833,82.7211,228.8144,0.0014693,0.00024238,0.0,0 STARLINK-3760,1 52298U 22041AP  23243.58334491  .00024238  00000-0  14693-2 0  9990,2 52298  53.2142 274.0833 0001355  82.7211 228.8144 15.10456171 76662,6912.945,95.335,535.747,533.873,0.0
52298.0,STARLINK-3760,PAYLOAD,2023-08-31 22:00:01,15.10446585,0.0001339,53.2142,272.5812,95.2961,229.8585,0.0029304,0.00048787,0.0,0 STARLINK-3760,1 52298U 22041AP  23243.91668981  .00048787  00000-0  29304-2 0  9991,2 52298  53.2142 272.5812 0001339  95.2961 229.8585 15.10446585  5834,6912.974,95.336,535.765,533.913,0.0
52298.0,STARLINK-3760,PAYLOAD,2023-09-01 02:55:10,15.1047327,0.0001212,53.2175,271.6635,57.7281,302.3829,-0.00073388,-0.00012488,0.0,0 STARLINK-3760,1 52298U 22041AP  23244.12164890 -.00012488  00000-0 -73388-3 0  9998,2 52298  53.2175 271.6635 0001212  57.7281 302.3829 15.10473270 76748,6912.893,95.334,535.595,533.92,0.0
52298.0,STARLINK-3760,PAYLOAD,2023-09-01 10:51:28,15.1055959,0.0001358,53.2174,270.1741,78.2398,281.8747,4.8707e-05,5.2e-06,0.0,0 STARLINK-3760,1 52298U 22041AP  23244.45241196  .00000520  00000-0  48707-4 0  9999,2 52298  53.2174 270.1741 0001358  78.2398 281.8747 15.10559590 76792,6912.629,95.329,535.433,533.556,0.0
52298.0,STARLINK-3760,PAYLOAD,2023-09-02 02:44:21,15.10495229,9.14e-05,53.2283,267.1997,107.49,252.6193,-8.8931e-05,-1.773e-05,0.0,0 STARLINK-3760,1 52298U 22041AP  23245.11413944 -.00001773  00000-0 -88931-4 0  9991,2 52298  53.2283 267.1997 0000914 107.4900 252.6193 15.10495229 76893,6912.826,95.333,535.322,534.059,0.0
52298.0,STARLINK-3760,PAYLOAD,2023-09-02 18:37:10,15.10488359,0.0001229,53.2161,264.2131,81.7934,278.3198,0.00017018,2.543e-05,0.0,0 STARLINK-3760,1 52298U 22041AP  23245.77582056  .00002543  00000-0  17018-3 0  9995,2 52298  53.2161 264.2131 0001229  81.7934 278.3198 15.10488359 75780,6912.847,95.333,535.561,533.862,0.0
52298.0,STARLINK-3760,PAYLOAD,2023-09-03 00:58:18,15.10478701,0.0001388,53.2124,263.021,84.7367,275.3784,0.00021372,3.267e-05,0.0,0 STARLINK-3760,1 52298U 22041AP  23246.04049761  .00003267  00000-0  21372-3 0  9999,2 52298  53.2124 263.0210 0001388  84.7367 275.3784 15.10478701 77031,6912.876,95.334,535.701,533.782,0.0
52298.0,STARLINK-3760,PAYLOAD,2023-09-03 08:54:43,15.10478969,0.000145,53.2145,261.5323,85.7273,274.3886,8.3414e-05,1.096e-05,0.0,0 STARLINK-3760,1 52298U 22041AP  23246.37133954  .00001096  00000-0  83414-4 0  9997,2 52298  53.2145 261.5323 0001450  85.7273 274.3886 15.10478969 75877,6912.875,95.334,535.743,533.738,0.0
52298.0,STARLINK-3760,PAYLOAD,2023-09-04 10:19:15,15.10474717,0.000144,53.2157,256.7693,85.3461,274.7697,6.1427e-05,7.3e-06,0.0,0 STARLINK-3760,1 52298U 22041AP  23247.43003576  .00000730  00000-0  61427-4 0  9995,2 52298  53.2157 256.7693 0001440  85.3461 274.7697 15.10474717 77244,6912.888,95.334,535.749,533.758,0.0
52298.0,STARLINK-3760,PAYLOAD,2023-09-05 00:36:47,15.10468972,0.0001526,53.2156,254.088,89.7119,270.4049,0.00021951,3.363e-05,0.0,0 STARLINK-3760,1 52298U 22041AP  23248.02554905  .00003363  00000-0  21951-3 0  9990,2 52298  53.2156 254.0880 0001526  89.7119 270.4049 15.10468972 76121,6912.906,95.335,535.826,533.716,0.0
